OBJECT_NAME,OBJECT_ID,EPOCH,MEAN_MOTION,ECCENTRICITY,INCLINATION,RA_OF_ASC_NODE,ARG_OF_PERICENTER,MEAN_ANOMALY,EPHEMERIS_TYPE,CLASSIFICATION_TYPE,NORAD_CAT_ID,ELEMENT_SET_NO,REV_AT_EPOCH,BSTAR,MEAN_MOTION_DOT,MEAN_MOTION_DDOT
ONEWEB-0641,2023-029K,2026-07-14T20:26:46.675104,13.19726759,.0002149,87.9193,299.4579,104.7073,255.4298,0,U,55805,999,16256,.56058E-4,.35E-6,0
ONEWEB-0642,2023-029L,2026-07-15T05:25:51.331584,13.19726592,.0002679,87.9187,299.3936,113.9555,246.1858,0,U,55806,999,16260,.14439E-3,.71E-6,0
ONEWEB-0643,2023-029M,2026-07-14T18:35:48.427584,13.14502309,.00026574,87.8957,284.2310,107.6374,252.5046,0,U,55807,999,16301,.61430609E-3,.241E-5,0
ONEWEB-0644,2023-029N,2026-07-15T05:19:02.065152,13.19726151,.0002309,87.9184,299.3953,106.8224,253.3162,0,U,55808,999,16260,.17935E-3,.85E-6,0
ONEWEB-0645,2023-029P,2026-07-14T18:55:49.098144,13.19725789,.00020239,87.9184,299.4788,115.3898,244.7444,0,U,55809,999,16254,.15420267E-4,.19E-6,0
ONEWEB-0646,2023-029Q,2026-07-14T19:20:49.410816,13.19726847,.00022586,87.9186,299.4754,105.8251,254.3131,0,U,55810,999,16253,.75562537E-4,.43E-6,0
ONEWEB-0648,2023-029R,2026-07-14T17:50:07.406592,13.14503406,.00023685,87.8967,284.2135,123.0802,237.0556,0,U,55811,999,16301,-.35062467E-3,-.117E-5,0
ONEWEB-0649,2023-029S,2026-07-14T19:57:12.480480,13.19726680,.00020439,87.9184,299.4684,108.7187,251.4168,0,U,55812,999,16257,-.11897397E-3,-.35E-6,0
ONEWEB-0650,2023-029T,2026-07-14T19:50:23.441280,13.19726251,.00024804,87.9183,299.4716,112.3410,247.7986,0,U,55813,999,16254,-.12907812E-3,-.39E-6,0
ONEWEB-0652,2023-029U,2026-07-15T04:20:22.881696,13.14502706,.0002003,87.8970,284.1329,95.5003,264.6355,0,U,55814,999,16304,-.80984E-4,-.17E-6,0
ONEWEB-0653,2023-029V,2026-07-14T18:49:29.774496,13.14501342,.00019722,87.8972,284.2098,100.5037,259.6315,0,U,55815,999,16302,.2991623E-3,.124E-5,0
ONEWEB-0654,2023-029W,2026-07-15T03:50:41.532288,13.14502254,.0001805,87.8969,284.1314,91.0927,269.0410,0,U,55816,999,16309,.55607E-3,.219E-5,0
ONEWEB-0656,2023-029X,2026-07-15T03:48:27.779904,13.20770427,.0001886,87.9188,268.8571,86.8909,273.2440,0,U,55817,999,16484,.31081E-3,.139E-5,0
ONEWEB-0657,2023-029Y,2026-07-14T19:43:36.572448,13.19727113,.0002223,87.9184,299.4714,79.3166,280.8217,0,U,55818,999,16255,-.21468105E-3,-.73E-6,0
ONEWEB-0658,2023-029Z,2026-07-14T19:36:45.667008,13.19726025,.00023558,87.9193,299.4502,108.0811,252.0579,0,U,55819,999,16256,-.12559504E-3,-.37E-6,0
ONEWEB-0660,2023-029AA,2026-07-15T05:08:19.817664,13.14502074,.0001911,87.8975,284.1164,109.3731,250.7606,0,U,55820,999,16308,.78286E-4,.42E-6,0
ONEWEB-0661,2023-029AB,2026-07-15T04:08:58.208352,13.14502579,.0001783,87.8962,284.1646,107.7536,252.3788,0,U,55821,999,16306,.21068E-3,.91E-6,0
ONEWEB-0662,2023-029AC,2026-07-15T04:59:12.448608,13.14502498,.0001917,87.8956,284.1636,109.5568,250.5769,0,U,55822,999,16311,-.89778E-4,-.2E-6,0
ONEWEB-0663,2023-029AD,2026-07-15T04:33:59.309856,13.20871776,.0002195,87.9190,268.9216,110.8769,249.2600,0,U,55823,999,16484,.47676E-4,.32E-6,0
ONEWEB-0664,2023-029AE,2026-07-15T03:29:05.376768,13.20771863,.0001593,87.9176,268.9082,103.9130,256.2181,0,U,55824,999,16483,.99134E-4,.53E-6,0
ONEWEB-0665,2023-029AF,2026-07-15T04:04:24.316032,13.14502002,.0002016,87.8961,284.1461,110.3944,249.7403,0,U,55825,999,16308,.41613E-3,.167E-5,0
ONEWEB-0666,2023-029AG,2026-07-15T03:19:21.818208,13.20773272,.0002519,87.9175,268.8999,84.7443,275.3977,0,U,55826,999,16484,.15976E-3,.78E-6,0
ONEWEB-0667,2023-029AH,2026-07-15T03:12:05.317632,13.20773965,.0001983,87.9193,268.8631,103.5040,256.6314,0,U,55827,999,16483,.51241E-4,.34E-6,0
ONEWEB-0669,2023-029AJ,2026-07-15T04:53:54.299616,13.20770108,.0001668,87.9188,268.8583,87.2317,272.9007,0,U,55828,999,16484,.58024E-4,.37E-6,0
ONEWEB-0670,2023-029AK,2026-07-15T05:22:02.826912,13.14501865,.0001649,87.8956,284.1523,106.7563,253.3747,0,U,55829,999,16311,.54152E-3,.214E-5,0
ONEWEB-0671,2023-029AL,2026-07-14T15:51:34.290720,13.19726471,.00019293,87.9186,299.5047,104.5167,255.6180,0,U,55830,999,16252,.59946181E-4,.37E-6,0
ONEWEB-0672,2023-029AM,2026-07-15T02:57:33.380064,13.20770475,.0002083,87.9187,268.8680,93.0505,267.0867,0,U,55831,999,16483,.70571E-4,.42E-6,0
ONEWEB-0673,2023-029AN,2026-07-14T18:56:56.627520,13.19724922,.00019273,87.9193,299.4727,104.3928,255.7419,0,U,55832,999,16254,-.47575585E-4,-.6E-7,0
ONEWEB-0674,2023-029AP,2026-07-14T17:38:41.966016,13.14501242,.00016118,87.8963,284.2265,104.4451,255.6858,0,U,55833,999,16303,-.51207849E-3,-.177E-5,0
ONEWEB-0675,2023-029AQ,2026-07-15T04:24:26.558208,13.19723970,.000226,87.9186,299.4022,96.9968,263.1422,0,U,55834,999,16261,.83286E-4,.46E-6,0
