ONEWEB-0641             
1 55805U 23029K   26195.85192911  .00000035  00000+0  56058-4 0  9993
2 55805  87.9193 299.4579 0002149 104.7073 255.4298 13.19726759162560
ONEWEB-0642             
1 55806U 23029L   26196.22628856  .00000071  00000+0  14439-3 0  9994
2 55806  87.9187 299.3936 0002679 113.9555 246.1858 13.19726592162604
ONEWEB-0643             
1 55807U 23029M   26195.77486606  .00000241  00000+0  61431-3 0  9992
2 55807  87.8957 284.2310 0002657 107.6374 252.5046 13.14502309163012
ONEWEB-0644             
1 55808U 23029N   26196.22155168  .00000085  00000+0  17935-3 0  9996
2 55808  87.9184 299.3953 0002309 106.8224 253.3162 13.19726151162605
ONEWEB-0645             
1 55809U 23029P   26195.78876271  .00000019  00000+0  15420-4 0  9997
2 55809  87.9184 299.4788 0002023 115.3898 244.7444 13.19725789162544
ONEWEB-0646             
1 55810U 23029Q   26195.80612744  .00000043  00000+0  75563-4 0  9996
2 55810  87.9186 299.4754 0002258 105.8251 254.3131 13.19726847162533
ONEWEB-0648             
1 55811U 23029R   26195.74314128 -.00000117  00000+0 -35062-3 0  9998
2 55811  87.8967 284.2135 0002368 123.0802 237.0556 13.14503406163013
ONEWEB-0649             
1 55812U 23029S   26195.83139445 -.00000035  00000+0 -11897-3 0  9995
2 55812  87.9184 299.4684 0002043 108.7187 251.4168 13.19726680162574
ONEWEB-0650             
1 55813U 23029T   26195.82666020 -.00000039  00000+0 -12908-3 0  9997
2 55813  87.9183 299.4716 0002480 112.3410 247.7986 13.19726251162542
ONEWEB-0652             
1 55814U 23029U   26196.18082039 -.00000017  00000+0 -80984-4 0  9996
2 55814  87.8970 284.1329 0002003  95.5003 264.6355 13.14502706163044
ONEWEB-0653             
1 55815U 23029V   26195.78437239  .00000124  00000+0  29916-3 0  9992
2 55815  87.8972 284.2098 0001972 100.5037 259.6315 13.14501342163022
ONEWEB-0654             
1 55816U 23029W   26196.16020292  .00000219  00000+0  55607-3 0  9994
2 55816  87.8969 284.1314 0001805  91.0927 269.0410 13.14502254163097
ONEWEB-0656             
1 55817U 23029X   26196.15865486  .00000139  00000+0  31081-3 0  9997
2 55817  87.9188 268.8571 0001886  86.8909 273.2440 13.20770427164847
ONEWEB-0657             
1 55818U 23029Y   26195.82195107 -.00000073  00000+0 -21468-3 0  9994
2 55818  87.9184 299.4714 0002223  79.3166 280.8217 13.19727113162555
ONEWEB-0658             
1 55819U 23029Z   26195.81719522 -.00000037  00000+0 -12560-3 0  9990
2 55819  87.9193 299.4502 0002355 108.0811 252.0579 13.19726025162568
ONEWEB-0660             
1 55820U 23029AA  26196.21411826  .00000042  00000+0  78286-4 0  9995
2 55820  87.8975 284.1164 0001911 109.3731 250.7606 13.14502074163089
ONEWEB-0661             
1 55821U 23029AB  26196.17289593  .00000091  00000+0  21068-3 0  9994
2 55821  87.8962 284.1646 0001783 107.7536 252.3788 13.14502579163060
ONEWEB-0662             
1 55822U 23029AC  26196.20778297 -.00000020  00000+0 -89778-4 0  9990
2 55822  87.8956 284.1636 0001917 109.5568 250.5769 13.14502498163112
ONEWEB-0663             
1 55823U 23029AD  26196.19026979  .00000032  00000+0  47676-4 0  9994
2 55823  87.9190 268.9216 0002195 110.8769 249.2600 13.20871776164840
ONEWEB-0664             
1 55824U 23029AE  26196.14520112  .00000053  00000+0  99134-4 0  9997
2 55824  87.9176 268.9082 0001593 103.9130 256.2181 13.20771863164839
ONEWEB-0665             
1 55825U 23029AF  26196.16972588  .00000167  00000+0  41613-3 0  9992
2 55825  87.8961 284.1461 0002016 110.3944 249.7403 13.14502002163088
ONEWEB-0666             
1 55826U 23029AG  26196.13844697  .00000078  00000+0  15976-3 0  9993
2 55826  87.9175 268.8999 0002519  84.7443 275.3977 13.20773272164840
ONEWEB-0667             
1 55827U 23029AH  26196.13339488  .00000034  00000+0  51241-4 0  9999
2 55827  87.9193 268.8631 0001983 103.5040 256.6314 13.20773965164836
ONEWEB-0669             
1 55828U 23029AJ  26196.20410069  .00000037  00000+0  58024-4 0  9992
2 55828  87.9188 268.8583 0001668  87.2317 272.9007 13.20770108164849
ONEWEB-0670             
1 55829U 23029AK  26196.22364383  .00000214  00000+0  54152-3 0  9996
2 55829  87.8956 284.1523 0001649 106.7563 253.3747 13.14501865163114
ONEWEB-0671             
1 55830U 23029AL  26195.66081355  .00000037  00000+0  59946-4 0  9990
2 55830  87.9186 299.5047 0001929 104.5167 255.6180 13.19726471162527
ONEWEB-0672             
1 55831U 23029AM  26196.12330301  .00000042  00000+0  70571-4 0  9994
2 55831  87.9187 268.8680 0002083  93.0505 267.0867 13.20770475164831
ONEWEB-0673             
1 55832U 23029AN  26195.78954430 -.00000006  00000+0 -47576-4 0  9992
2 55832  87.9193 299.4727 0001927 104.3928 255.7419 13.19724922162549
ONEWEB-0674             
1 55833U 23029AP  26195.73520794 -.00000177  00000+0 -51208-3 0  9995
2 55833  87.8963 284.2265 0001611 104.4451 255.6858 13.14501242163039
ONEWEB-0675             
1 55834U 23029AQ  26196.18364072  .00000046  00000+0  83286-4 0  9996
2 55834  87.9186 299.4022 0002260  96.9968 263.1422 13.19723970162619
